DryMass, ErgolMass, ISP, ManeuverType, DV
500
53.575281
53.575281
1 13601U 23001EAE 24291.73400973  .00030938  00000+0  12818-2 0  9996
2 13601 002.0000 003.0000 0001044 276.0819 270.0073 08.68166121220696

